{
"type": "FeatureCollection",
"crs": { "type": "name", "properties": { "name": "urn:ogc:def:crs:OGC:1.3:CRS84" } },
"features": [
{ "type": "Feature", "properties": { "Name": "Nthandanyathi", "Type": "Bird hide", "Access": "Public", "Lon": 31.959580185316714, "Lat": -25.207328830642012 }, "geometry": { "type": "Point", "coordinates": [ 31.959580185316714, -25.207328830642012 ] } },
{ "type": "Feature", "properties": { "Name": "Lake Panic", "Type": "Bird hide", "Access": "Public", "Lon": 31.566088551440078, "Lat": -24.981317586090547 }, "geometry": { "type": "Point", "coordinates": [ 31.566088551440078, -24.981317586090547 ] } },
{ "type": "Feature", "properties": { "Name": "Sweni", "Type": "Bird hide", "Access": "Public", "Lon": 31.973105204149864, "Lat": -24.473604082092415 }, "geometry": { "type": "Point", "coordinates": [ 31.973105204149864, -24.473604082092415 ] } },
{ "type": "Feature", "properties": { "Name": "Ratel Pan", "Type": "Bird hide", "Access": "Public", "Lon": 31.642755407803367, "Lat": -24.242063890833158 }, "geometry": { "type": "Point", "coordinates": [ 31.642755407803367, -24.242063890833158 ] } },
{ "type": "Feature", "properties": { "Name": "Sable Dam", "Type": "Bird hide", "Access": "Public", "Lon": 31.239261041099486, "Lat": -23.939594270094378 }, "geometry": { "type": "Point", "coordinates": [ 31.239261041099486, -23.939594270094378 ] } },
{ "type": "Feature", "properties": { "Name": "Matambeni", "Type": "Bird hide", "Access": "Public", "Lon": 31.618283504393037, "Lat": -23.842716492235905 }, "geometry": { "type": "Point", "coordinates": [ 31.618283504393037, -23.842716492235905 ] } },
{ "type": "Feature", "properties": { "Name": "Shipandani", "Type": "Bird hide", "Access": "Public", "Lon": 31.432160702943087, "Lat": -23.546371710864999 }, "geometry": { "type": "Point", "coordinates": [ 31.432160702943087, -23.546371710864999 ] } },
{ "type": "Feature", "properties": { "Name": "Pioneer Dam", "Type": "Bird hide", "Access": "Public", "Lon": 31.392255718137694, "Lat": -23.520123264586559 }, "geometry": { "type": "Point", "coordinates": [ 31.392255718137694, -23.520123264586559 ] } },
{ "type": "Feature", "properties": { "Name": "Biyamiti", "Type": "Bird hide", "Access": "Public", "Lon": 31.711378865066337, "Lat": -25.306764145608817 }, "geometry": { "type": "Point", "coordinates": [ 31.711378865066337, -25.306764145608817 ] } },
{ "type": "Feature", "properties": { "Name": "Coetzee Dam", "Type": "Bird hide", "Access": "Public", "Lon": 31.017369625275659, "Lat": -22.693227903646207 }, "geometry": { "type": "Point", "coordinates": [ 31.017369625275659, -22.693227903646207 ] } },
{ "type": "Feature", "properties": { "Name": "Gardenia", "Type": "Bird hide", "Access": "Public", "Lon": 31.60762618467928, "Lat": -25.373695209254581 }, "geometry": { "type": "Point", "coordinates": [ 31.60762618467928, -25.373695209254581 ] } },
{ "type": "Feature", "properties": { "Name": "Nyawutsi", "Type": "Bird hide", "Access": "Public", "Lon": 31.532105936459736, "Lat": -23.28384673968155 }, "geometry": { "type": "Point", "coordinates": [ 31.532105936459736, -23.28384673968155 ] } },
{ "type": "Feature", "properties": { "Name": "Kanniedood", "Type": "Bird hide", "Access": "Public", "Lon": 31.456858277940686, "Lat": -23.141234470198853 }, "geometry": { "type": "Point", "coordinates": [ 31.456858277940686, -23.141234470198853 ] } },
{ "type": "Feature", "properties": { "Name": "Bateleur", "Type": "Bushveld camp", "Access": "Public", "Lon": 31.201355976841, "Lat": -23.233427993998173 }, "geometry": { "type": "Point", "coordinates": [ 31.201355976841, -23.233427993998173 ] } },
{ "type": "Feature", "properties": { "Name": "Berg-en-Dal", "Type": "Rest camp", "Access": "Public", "Lon": 31.444319855824595, "Lat": -25.428126851153632 }, "geometry": { "type": "Point", "coordinates": [ 31.444319855824595, -25.428126851153632 ] } },
{ "type": "Feature", "properties": { "Name": "Biyamiti", "Type": "Bushveld camp", "Access": "Public", "Lon": 31.710347054127187, "Lat": -25.308106508820956 }, "geometry": { "type": "Point", "coordinates": [ 31.710347054127187, -25.308106508820956 ] } },
{ "type": "Feature", "properties": { "Name": "Boulders", "Type": "Bush Lodge", "Access": "Private", "Lon": 31.375010886149571, "Lat": -23.607933504194559 }, "geometry": { "type": "Point", "coordinates": [ 31.375010886149571, -23.607933504194559 ] } },
{ "type": "Feature", "properties": { "Name": "Crocodile Bridge", "Type": "Rest camp", "Access": "Public", "Lon": 31.89330364010209, "Lat": -25.358233850884123 }, "geometry": { "type": "Point", "coordinates": [ 31.89330364010209, -25.358233850884123 ] } },
{ "type": "Feature", "properties": { "Name": "Letaba", "Type": "Rest camp", "Access": "Public", "Lon": 31.57451374376673, "Lat": -23.854300336996179 }, "geometry": { "type": "Point", "coordinates": [ 31.57451374376673, -23.854300336996179 ] } },
{ "type": "Feature", "properties": { "Name": "Lower Sabie", "Type": "Rest camp", "Access": "Public", "Lon": 31.914376948950149, "Lat": -25.119944502413436 }, "geometry": { "type": "Point", "coordinates": [ 31.914376948950149, -25.119944502413436 ] } },
{ "type": "Feature", "properties": { "Name": "Malelane", "Type": "Satellite camp", "Access": "Public", "Lon": 31.512732690586649, "Lat": -25.470369247759475 }, "geometry": { "type": "Point", "coordinates": [ 31.512732690586649, -25.470369247759475 ] } },
{ "type": "Feature", "properties": { "Name": "Mopani", "Type": "Rest camp", "Access": "Public", "Lon": 31.399132836948997, "Lat": -23.521639819788223 }, "geometry": { "type": "Point", "coordinates": [ 31.399132836948997, -23.521639819788223 ] } },
{ "type": "Feature", "properties": { "Name": "Olifants", "Type": "Rest camp", "Access": "Public", "Lon": 31.7386871449655, "Lat": -24.004549661322329 }, "geometry": { "type": "Point", "coordinates": [ 31.7386871449655, -24.004549661322329 ] } },
{ "type": "Feature", "properties": { "Name": "Orpen", "Type": "Rest camp", "Access": "Public", "Lon": 31.390477850274245, "Lat": -24.475655986266077 }, "geometry": { "type": "Point", "coordinates": [ 31.390477850274245, -24.475655986266077 ] } },
{ "type": "Feature", "properties": { "Name": "Roodewal", "Type": "Bush Lodge", "Access": "Private", "Lon": 31.632848860421763, "Lat": -24.146630192970932 }, "geometry": { "type": "Point", "coordinates": [ 31.632848860421763, -24.146630192970932 ] } },
{ "type": "Feature", "properties": { "Name": "Skukuza", "Type": "Rest camp", "Access": "Public", "Lon": 31.591989637766584, "Lat": -24.996507331891323 }, "geometry": { "type": "Point", "coordinates": [ 31.591989637766584, -24.996507331891323 ] } },
{ "type": "Feature", "properties": { "Name": "Talamati", "Type": "Bushveld camp", "Access": "Public", "Lon": 31.555199435192723, "Lat": -24.556249356517526 }, "geometry": { "type": "Point", "coordinates": [ 31.555199435192723, -24.556249356517526 ] } },
{ "type": "Feature", "properties": { "Name": "Shimuwini", "Type": "Bushveld camp", "Access": "Public", "Lon": 31.2663045657415, "Lat": -23.714663361375354 }, "geometry": { "type": "Point", "coordinates": [ 31.2663045657415, -23.714663361375354 ] } },
{ "type": "Feature", "properties": { "Name": "Shingwedzi", "Type": "Rest camp", "Access": "Public", "Lon": 31.434153793525685, "Lat": -23.107844185540074 }, "geometry": { "type": "Point", "coordinates": [ 31.434153793525685, -23.107844185540074 ] } },
{ "type": "Feature", "properties": { "Name": "Sirheni", "Type": "Bushveld camp", "Access": "Public", "Lon": 31.221535139726829, "Lat": -22.946060870439002 }, "geometry": { "type": "Point", "coordinates": [ 31.221535139726829, -22.946060870439002 ] } },
{ "type": "Feature", "properties": { "Name": "Njalaland Trails", "Type": "Trails camp", "Access": "Private", "Lon": 31.085604477962228, "Lat": -22.512904599446937 }, "geometry": { "type": "Point", "coordinates": [ 31.085604477962228, -22.512904599446937 ] } },
{ "type": "Feature", "properties": { "Name": "Boesman Trails", "Type": "Trails camp", "Access": "Private", "Lon": 31.363146867491523, "Lat": -25.414603555600362 }, "geometry": { "type": "Point", "coordinates": [ 31.363146867491523, -25.414603555600362 ] } },
{ "type": "Feature", "properties": { "Name": "Metsimetsi Trails", "Type": "Trails camp", "Access": "Private", "Lon": 31.913290973663454, "Lat": -24.748342443019258 }, "geometry": { "type": "Point", "coordinates": [ 31.913290973663454, -24.748342443019258 ] } },
{ "type": "Feature", "properties": { "Name": "Wolhuter Trails", "Type": "Trails camp", "Access": "Private", "Lon": 31.392564528762939, "Lat": -25.372464694171821 }, "geometry": { "type": "Point", "coordinates": [ 31.392564528762939, -25.372464694171821 ] } },
{ "type": "Feature", "properties": { "Name": "Napi Trails", "Type": "Trails camp", "Access": "Private", "Lon": 31.438234844832291, "Lat": -25.163581532573687 }, "geometry": { "type": "Point", "coordinates": [ 31.438234844832291, -25.163581532573687 ] } },
{ "type": "Feature", "properties": { "Name": "Olifants Trails", "Type": "Trails camp", "Access": "Private", "Lon": 31.805295084011256, "Lat": -23.996466940412731 }, "geometry": { "type": "Point", "coordinates": [ 31.805295084011256, -23.996466940412731 ] } },
{ "type": "Feature", "properties": { "Name": "Sweni Trails", "Type": "Trails camp", "Access": "Private", "Lon": 31.925294606247853, "Lat": -24.490398812674677 }, "geometry": { "type": "Point", "coordinates": [ 31.925294606247853, -24.490398812674677 ] } },
{ "type": "Feature", "properties": { "Name": "Gorge", "Type": "Unspecified", "Access": "Private", "Lon": 31.823137283430061, "Lat": -23.999608971206715 }, "geometry": { "type": "Point", "coordinates": [ 31.823137283430061, -23.999608971206715 ] } },
{ "type": "Feature", "properties": { "Name": "Balule", "Type": "Satellite camp", "Access": "Public", "Lon": 31.733020373834496, "Lat": -24.053980346565005 }, "geometry": { "type": "Point", "coordinates": [ 31.733020373834496, -24.053980346565005 ] } },
{ "type": "Feature", "properties": { "Name": "Maroela", "Type": "Satellite camp", "Access": "Public", "Lon": 31.399115384447416, "Lat": -24.456100015340112 }, "geometry": { "type": "Point", "coordinates": [ 31.399115384447416, -24.456100015340112 ] } },
{ "type": "Feature", "properties": { "Name": "Tamboti", "Type": "Satellite camp", "Access": "Public", "Lon": 31.406617621606081, "Lat": -24.454645590439537 }, "geometry": { "type": "Point", "coordinates": [ 31.406617621606081, -24.454645590439537 ] } },
{ "type": "Feature", "properties": { "Name": "Lonely Bull", "Type": "Backpack camp", "Access": "Private", "Lon": 31.387331009051643, "Lat": -23.748825051114412 }, "geometry": { "type": "Point", "coordinates": [ 31.387331009051643, -23.748825051114412 ] } },
{ "type": "Feature", "properties": { "Name": "Mitini", "Type": "Unspecified", "Access": "Private", "Lon": 31.9354381562319, "Lat": -25.119829154689867 }, "geometry": { "type": "Point", "coordinates": [ 31.9354381562319, -25.119829154689867 ] } },
{ "type": "Feature", "properties": { "Name": "Pretoriuskop", "Type": "Rest camp", "Access": "Public", "Lon": 31.268696006058565, "Lat": -25.168990139725594 }, "geometry": { "type": "Point", "coordinates": [ 31.268696006058565, -25.168990139725594 ] } },
{ "type": "Feature", "properties": { "Name": "Punda Maria", "Type": "Rest camp", "Access": "Public", "Lon": 31.018924936716804, "Lat": -22.692239597900695 }, "geometry": { "type": "Point", "coordinates": [ 31.018924936716804, -22.692239597900695 ] } },
{ "type": "Feature", "properties": { "Name": "Satara", "Type": "Rest camp", "Access": "Public", "Lon": 31.780473375065686, "Lat": -24.392204809510741 }, "geometry": { "type": "Point", "coordinates": [ 31.780473375065686, -24.392204809510741 ] } },
{ "type": "Feature", "properties": { "Name": "Houtboschrand", "Type": "Ranger camp", "Access": "Staff", "Lon": 31.667333603025021, "Lat": -24.104900337704869 }, "geometry": { "type": "Point", "coordinates": [ 31.667333603025021, -24.104900337704869 ] } },
{ "type": "Feature", "properties": { "Name": "Kingfisherspruit", "Type": "Ranger camp", "Access": "Staff", "Lon": 31.44628399330664, "Lat": -24.460180466268667 }, "geometry": { "type": "Point", "coordinates": [ 31.44628399330664, -24.460180466268667 ] } },
{ "type": "Feature", "properties": { "Name": "Mahlangeni", "Type": "Ranger camp", "Access": "Staff", "Lon": 31.147435172799575, "Lat": -23.647772297943654 }, "geometry": { "type": "Point", "coordinates": [ 31.147435172799575, -23.647772297943654 ] } },
{ "type": "Feature", "properties": { "Name": "Mooiplaas", "Type": "Ranger camp", "Access": "Staff", "Lon": 31.403732299941094, "Lat": -23.519342400534171 }, "geometry": { "type": "Point", "coordinates": [ 31.403732299941094, -23.519342400534171 ] } },
{ "type": "Feature", "properties": { "Name": "Phalaborwa", "Type": "Ranger camp", "Access": "Staff", "Lon": 31.162023544474007, "Lat": -23.939008690497527 }, "geometry": { "type": "Point", "coordinates": [ 31.162023544474007, -23.939008690497527 ] } },
{ "type": "Feature", "properties": { "Name": "Stolznek", "Type": "Ranger camp", "Access": "Staff", "Lon": 31.392620086829222, "Lat": -25.321418738896313 }, "geometry": { "type": "Point", "coordinates": [ 31.392620086829222, -25.321418738896313 ] } },
{ "type": "Feature", "properties": { "Name": "Tshokwane", "Type": "Ranger camp", "Access": "Staff", "Lon": 31.85593605052382, "Lat": -24.78815457913149 }, "geometry": { "type": "Point", "coordinates": [ 31.85593605052382, -24.78815457913149 ] } },
{ "type": "Feature", "properties": { "Name": "Vlakteplaas", "Type": "Ranger camp", "Access": "Staff", "Lon": 31.227333068990703, "Lat": -22.867990472332323 }, "geometry": { "type": "Point", "coordinates": [ 31.227333068990703, -22.867990472332323 ] } },
{ "type": "Feature", "properties": { "Name": "Woodlands", "Type": "Ranger camp", "Access": "Staff", "Lon": 31.212028503566717, "Lat": -23.219661690929673 }, "geometry": { "type": "Point", "coordinates": [ 31.212028503566717, -23.219661690929673 ] } },
{ "type": "Feature", "properties": { "Name": "Shangoni", "Type": "Ranger camp", "Access": "Staff", "Lon": 30.942623138597657, "Lat": -23.167463280939288 }, "geometry": { "type": "Point", "coordinates": [ 30.942623138597657, -23.167463280939288 ] } },
{ "type": "Feature", "properties": { "Name": "Baobab Hill Bush House", "Type": "Concession camp", "Access": "Private", "Lon": 31.211109046086545, "Lat": -22.420606763691939 }, "geometry": { "type": "Point", "coordinates": [ 31.211109046086545, -22.420606763691939 ] } },
{ "type": "Feature", "properties": { "Name": "Phabeni K9 Centre", "Type": "Kennels/ K9 training", "Access": "Staff", "Lon": 31.250014426917637, "Lat": -25.019485699338954 }, "geometry": { "type": "Point", "coordinates": [ 31.250014426917637, -25.019485699338954 ] } },
{ "type": "Feature", "properties": { "Name": "Kongoma Base", "Type": "SANDF Base", "Access": "Private", "Lon": 31.969839096172127, "Lat": -25.389211631297552 }, "geometry": { "type": "Point", "coordinates": [ 31.969839096172127, -25.389211631297552 ] } },
{ "type": "Feature", "properties": { "Name": "Makhadzi Base", "Type": "SANDF Base", "Access": "Private", "Lon": 31.62063598644783, "Lat": -23.691329933968937 }, "geometry": { "type": "Point", "coordinates": [ 31.62063598644783, -23.691329933968937 ] } },
{ "type": "Feature", "properties": { "Name": "Masokosa Base", "Type": "SANDF Base", "Access": "Private", "Lon": 31.267936706679908, "Lat": -22.632509210310243 }, "geometry": { "type": "Point", "coordinates": [ 31.267936706679908, -22.632509210310243 ] } },
{ "type": "Feature", "properties": { "Name": "Sand River Base", "Type": "SANDF Base", "Access": "Private", "Lon": 31.618429184093053, "Lat": -24.956241584623342 }, "geometry": { "type": "Point", "coordinates": [ 31.618429184093053, -24.956241584623342 ] } },
{ "type": "Feature", "properties": { "Name": "Shishangani Base", "Type": "SANDF Base", "Access": "Private", "Lon": 31.902637481790681, "Lat": -24.415979362735843 }, "geometry": { "type": "Point", "coordinates": [ 31.902637481790681, -24.415979362735843 ] } },
{ "type": "Feature", "properties": { "Name": "Tsendze", "Type": "Satellite camp", "Access": "Public", "Lon": 31.444167850866219, "Lat": -23.556472581480236 }, "geometry": { "type": "Point", "coordinates": [ 31.444167850866219, -23.556472581480236 ] } },
{ "type": "Feature", "properties": { "Name": "Pafuri Picnic", "Type": "Staff Accommodation", "Access": "Staff", "Lon": 31.248049184773006, "Lat": -22.423207089489047 }, "geometry": { "type": "Point", "coordinates": [ 31.248049184773006, -22.423207089489047 ] } },
{ "type": "Feature", "properties": { "Name": "Nwanetsi", "Type": "Ranger camp", "Access": "Staff", "Lon": 31.976666666761542, "Lat": -24.471466643984218 }, "geometry": { "type": "Point", "coordinates": [ 31.976666666761542, -24.471466643984218 ] } },
{ "type": "Feature", "properties": { "Name": "Mlondozi LOET camp", "Type": "4X4 Camp", "Access": "Private", "Lon": 31.995009781816801, "Lat": -25.141881134868836 }, "geometry": { "type": "Point", "coordinates": [ 31.995009781816801, -25.141881134868836 ] } },
{ "type": "Feature", "properties": { "Name": "Afsaal Picnic", "Type": "Staff Accommodation", "Access": "Staff", "Lon": 31.533277824784193, "Lat": -25.286745162135155 }, "geometry": { "type": "Point", "coordinates": [ 31.533277824784193, -25.286745162135155 ] } },
{ "type": "Feature", "properties": { "Name": "Mooiplaas Picnic", "Type": "Staff Accommodation", "Access": "Staff", "Lon": 31.441527079302034, "Lat": -23.555147384870224 }, "geometry": { "type": "Point", "coordinates": [ 31.441527079302034, -23.555147384870224 ] } },
{ "type": "Feature", "properties": { "Name": "Muzandzeni Picnic", "Type": "Staff Accommodation", "Access": "Staff", "Lon": 31.636288292686068, "Lat": -24.482189913948865 }, "geometry": { "type": "Point", "coordinates": [ 31.636288292686068, -24.482189913948865 ] } },
{ "type": "Feature", "properties": { "Name": "Nkulu Picnic", "Type": "Staff Accommodation", "Access": "Staff", "Lon": 31.769689200381915, "Lat": -24.997527838440874 }, "geometry": { "type": "Point", "coordinates": [ 31.769689200381915, -24.997527838440874 ] } },
{ "type": "Feature", "properties": { "Name": "Timbavati Picnic", "Type": "Staff Accommodation", "Access": "Staff", "Lon": 31.643928765691545, "Lat": -24.259853749879909 }, "geometry": { "type": "Point", "coordinates": [ 31.643928765691545, -24.259853749879909 ] } },
{ "type": "Feature", "properties": { "Name": "Babalala Picnic", "Type": "Staff Accommodation", "Access": "Staff", "Lon": 31.252281085019611, "Lat": -22.904885119867775 }, "geometry": { "type": "Point", "coordinates": [ 31.252281085019611, -22.904885119867775 ] } },
{ "type": "Feature", "properties": { "Name": "Makhadzi Picnic", "Type": "Staff Accommodation", "Access": "Staff", "Lon": 31.621301050653784, "Lat": -23.691428477348893 }, "geometry": { "type": "Point", "coordinates": [ 31.621301050653784, -23.691428477348893 ] } },
{ "type": "Feature", "properties": { "Name": "Mlondozi Picnic", "Type": "Staff Accommodation", "Access": "Staff", "Lon": 31.936425862759297, "Lat": -25.035294174686591 }, "geometry": { "type": "Point", "coordinates": [ 31.936425862759297, -25.035294174686591 ] } },
{ "type": "Feature", "properties": { "Name": "Nwanetsi Picnic", "Type": "Staff Accommodation", "Access": "Staff", "Lon": 31.976184536228335, "Lat": -24.457531093345828 }, "geometry": { "type": "Point", "coordinates": [ 31.976184536228335, -24.457531093345828 ] } },
{ "type": "Feature", "properties": { "Name": "Nhlanguleni Picnic", "Type": "Staff Accommodation", "Access": "Staff", "Lon": 31.655859823307001, "Lat": -24.709564684811632 }, "geometry": { "type": "Point", "coordinates": [ 31.655859823307001, -24.709564684811632 ] } },
{ "type": "Feature", "properties": { "Name": "Sandriver Bushcamp", "Type": "HR camp", "Access": "Private", "Lon": 31.685370083507724, "Lat": -24.950734001637336 }, "geometry": { "type": "Point", "coordinates": [ 31.685370083507724, -24.950734001637336 ] } },
{ "type": "Feature", "properties": { "Name": "Camp Shonga", "Type": "Concession camp", "Access": "Private", "Lon": 31.99017600010049, "Lat": -25.353976976660249 }, "geometry": { "type": "Point", "coordinates": [ 31.99017600010049, -25.353976976660249 ] } },
{ "type": "Feature", "properties": { "Name": "Camp Shawu", "Type": "Concession camp", "Access": "Private", "Lon": 31.972177391823756, "Lat": -25.307692051189377 }, "geometry": { "type": "Point", "coordinates": [ 31.972177391823756, -25.307692051189377 ] } },
{ "type": "Feature", "properties": { "Name": "Singita Lebombo Lodge", "Type": "Concession camp", "Access": "Private", "Lon": 31.97769440214757, "Lat": -24.452305584640136 }, "geometry": { "type": "Point", "coordinates": [ 31.97769440214757, -24.452305584640136 ] } },
{ "type": "Feature", "properties": { "Name": "Rhino Walking Sleep-out Camp", "Type": "Concession camp", "Access": "Private", "Lon": 31.658113988012921, "Lat": -24.839319333151238 }, "geometry": { "type": "Point", "coordinates": [ 31.658113988012921, -24.839319333151238 ] } },
{ "type": "Feature", "properties": { "Name": "Rhino Walking Plains Camp", "Type": "Concession camp", "Access": "Private", "Lon": 31.656137411888945, "Lat": -24.872961825454091 }, "geometry": { "type": "Point", "coordinates": [ 31.656137411888945, -24.872961825454091 ] } },
{ "type": "Feature", "properties": { "Name": "Rhino Post Lodge", "Type": "Concession camp", "Access": "Private", "Lon": 31.659324974618219, "Lat": -24.923808945820475 }, "geometry": { "type": "Point", "coordinates": [ 31.659324974618219, -24.923808945820475 ] } },
{ "type": "Feature", "properties": { "Name": "Lukimbi Lodge", "Type": "Concession camp", "Access": "Private", "Lon": 31.682989961009113, "Lat": -25.365359931213902 }, "geometry": { "type": "Point", "coordinates": [ 31.682989961009113, -25.365359931213902 ] } },
{ "type": "Feature", "properties": { "Name": "Lukimbi Flycamp 2", "Type": "Concession camp", "Access": "Private", "Lon": 31.635790001037691, "Lat": -25.355149966496299 }, "geometry": { "type": "Point", "coordinates": [ 31.635790001037691, -25.355149966496299 ] } },
{ "type": "Feature", "properties": { "Name": "Lukimbi Flycamp 1", "Type": "Concession camp", "Access": "Private", "Lon": 31.664870000928019, "Lat": -25.351889975398198 }, "geometry": { "type": "Point", "coordinates": [ 31.664870000928019, -25.351889975398198 ] } },
{ "type": "Feature", "properties": { "Name": "Shishangeni Lodge", "Type": "Concession camp", "Access": "Private", "Lon": 31.974972190747799, "Lat": -25.388999967038298 }, "geometry": { "type": "Point", "coordinates": [ 31.974972190747799, -25.388999967038298 ] } },
{ "type": "Feature", "properties": { "Name": "Jock Flycamp", "Type": "Concession camp", "Access": "Private", "Lon": 31.523606393347762, "Lat": -25.17104316541424 }, "geometry": { "type": "Point", "coordinates": [ 31.523606393347762, -25.17104316541424 ] } },
{ "type": "Feature", "properties": { "Name": "Main Jock Lodge", "Type": "Concession camp", "Access": "Private", "Lon": 31.564105621350951, "Lat": -25.216420400108028 }, "geometry": { "type": "Point", "coordinates": [ 31.564105621350951, -25.216420400108028 ] } },
{ "type": "Feature", "properties": { "Name": "Tinga Narina", "Type": "Concession camp", "Access": "Private", "Lon": 31.562683314219523, "Lat": -24.962366661772617 }, "geometry": { "type": "Point", "coordinates": [ 31.562683314219523, -24.962366661772617 ] } },
{ "type": "Feature", "properties": { "Name": "Tinga Legends", "Type": "Concession camp", "Access": "Private", "Lon": 31.583116700134642, "Lat": -24.971716676947302 }, "geometry": { "type": "Point", "coordinates": [ 31.583116700134642, -24.971716676947302 ] } },
{ "type": "Feature", "properties": { "Name": "Hoyo Hoyo Tsonga Lodge", "Type": "Concession camp", "Access": "Private", "Lon": 31.597469763593242, "Lat": -24.600009867100834 }, "geometry": { "type": "Point", "coordinates": [ 31.597469763593242, -24.600009867100834 ] } },
{ "type": "Feature", "properties": { "Name": "Imbali Staff Village", "Type": "Concession camp", "Access": "Private", "Lon": 31.627659999800841, "Lat": -24.595649976597723 }, "geometry": { "type": "Point", "coordinates": [ 31.627659999800841, -24.595649976597723 ] } },
{ "type": "Feature", "properties": { "Name": "Imbali Safari Lodge", "Type": "Concession camp", "Access": "Private", "Lon": 31.62986999986812, "Lat": -24.600979977365022 }, "geometry": { "type": "Point", "coordinates": [ 31.62986999986812, -24.600979977365022 ] } },
{ "type": "Feature", "properties": { "Name": "Hamiltons Tented Camp", "Type": "Concession camp", "Access": "Private", "Lon": 31.672889999849012, "Lat": -24.624159977567025 }, "geometry": { "type": "Point", "coordinates": [ 31.672889999849012, -24.624159977567025 ] } },
{ "type": "Feature", "properties": { "Name": "Hamiltons Staff Village", "Type": "Concession camp", "Access": "Private", "Lon": 31.672320000230734, "Lat": -24.625969977545491 }, "geometry": { "type": "Point", "coordinates": [ 31.672320000230734, -24.625969977545491 ] } },
{ "type": "Feature", "properties": { "Name": "Pafuri Camp", "Type": "Concession camp", "Access": "Private", "Lon": 31.22954237890589, "Lat": -22.420018045636581 }, "geometry": { "type": "Point", "coordinates": [ 31.22954237890589, -22.420018045636581 ] } },
{ "type": "Feature", "properties": { "Name": "The Outpost Lodge", "Type": "Concession camp", "Access": "Private", "Lon": 31.08424978322876, "Lat": -22.440222268853155 }, "geometry": { "type": "Point", "coordinates": [ 31.08424978322876, -22.440222268853155 ] } },
{ "type": "Feature", "properties": { "Name": "Nkambeni Safari Camp", "Type": "Concession camp", "Access": "Private", "Lon": 31.193993273871641, "Lat": -25.134946968645028 }, "geometry": { "type": "Point", "coordinates": [ 31.193993273871641, -25.134946968645028 ] } },
{ "type": "Feature", "properties": { "Name": "Fitzpatricks Lodge at Jock", "Type": "Concession camp", "Access": "Private", "Lon": 31.566953334065836, "Lat": -25.223945546574495 }, "geometry": { "type": "Point", "coordinates": [ 31.566953334065836, -25.223945546574495 ] } },
{ "type": "Feature", "properties": { "Name": "Ngala Safari Lodge", "Type": "Concession camp", "Access": "Private", "Lon": 31.321134146144932, "Lat": -24.381386743461466 }, "geometry": { "type": "Point", "coordinates": [ 31.321134146144932, -24.381386743461466 ] } },
{ "type": "Feature", "properties": { "Name": "South African Wildlife College", "Type": "Concession camp", "Access": "Private", "Lon": 31.334817762765482, "Lat": -24.540876886131386 }, "geometry": { "type": "Point", "coordinates": [ 31.334817762765482, -24.540876886131386 ] } },
{ "type": "Feature", "properties": { "Name": "Singita Sweni Lodge", "Type": "Concession camp", "Access": "Private", "Lon": 31.980531651769585, "Lat": -24.454066552082576 }, "geometry": { "type": "Point", "coordinates": [ 31.980531651769585, -24.454066552082576 ] } },
{ "type": "Feature", "properties": { "Name": "Mathikithi Trails", "Type": "Trails camp", "Access": "Private", "Lon": 31.728986778903487, "Lat": -24.436280099951336 }, "geometry": { "type": "Point", "coordinates": [ 31.728986778903487, -24.436280099951336 ] } },
{ "type": "Feature", "properties": { "Name": "Frazersrus", "Type": "HR camp", "Access": "Private", "Lon": 31.30806770168271, "Lat": -23.481001561109714 }, "geometry": { "type": "Point", "coordinates": [ 31.30806770168271, -23.481001561109714 ] } },
{ "type": "Feature", "properties": { "Name": "Phabeni EE centre", "Type": "EE Centre", "Access": "Private", "Lon": 31.235230869127733, "Lat": -25.034204597622438 }, "geometry": { "type": "Point", "coordinates": [ 31.235230869127733, -25.034204597622438 ] } },
{ "type": "Feature", "properties": { "Name": "EcoTraining Makuleke Camp", "Type": "Concession camp", "Access": "Private", "Lon": 31.171551506855462, "Lat": -22.357727973552702 }, "geometry": { "type": "Point", "coordinates": [ 31.171551506855462, -22.357727973552702 ] } },
{ "type": "Feature", "properties": { "Name": "Mondzo", "Type": "Unspecified", "Access": "Private", "Lon": 31.733585896242005, "Lat": -24.313051070437254 }, "geometry": { "type": "Point", "coordinates": [ 31.733585896242005, -24.313051070437254 ] } },
{ "type": "Feature", "properties": { "Name": "Pafuri Border Camp", "Type": "Bush Lodge", "Access": "Private", "Lon": 31.310660645080336, "Lat": -22.449682509956997 }, "geometry": { "type": "Point", "coordinates": [ 31.310660645080336, -22.449682509956997 ] } },
{ "type": "Feature", "properties": { "Name": "Mdluli lodge", "Type": "Concession camp", "Access": "Private", "Lon": 31.230012921211404, "Lat": -25.18669766248043 }, "geometry": { "type": "Point", "coordinates": [ 31.230012921211404, -25.18669766248043 ] } },
{ "type": "Feature", "properties": { "Name": "Crocodile Bridge", "Type": "KNP Gate", "Access": "Public", "Lon": 31.89258657143726, "Lat": -25.358480632913864 }, "geometry": { "type": "Point", "coordinates": [ 31.89258657143726, -25.358480632913864 ] } },
{ "type": "Feature", "properties": { "Name": "Malelane", "Type": "KNP Gate", "Access": "Public", "Lon": 31.532248074823801, "Lat": -25.462242036021298 }, "geometry": { "type": "Point", "coordinates": [ 31.532248074823801, -25.462242036021298 ] } },
{ "type": "Feature", "properties": { "Name": "Numbi", "Type": "KNP Gate", "Access": "Public", "Lon": 31.19779114628988, "Lat": -25.155235225028587 }, "geometry": { "type": "Point", "coordinates": [ 31.19779114628988, -25.155235225028587 ] } },
{ "type": "Feature", "properties": { "Name": "Pafuri", "Type": "KNP Gate", "Access": "Public", "Lon": 31.041282077092031, "Lat": -22.399849267439016 }, "geometry": { "type": "Point", "coordinates": [ 31.041282077092031, -22.399849267439016 ] } },
{ "type": "Feature", "properties": { "Name": "Phalaborwa", "Type": "KNP Gate", "Access": "Public", "Lon": 31.166061973814458, "Lat": -23.945702628997928 }, "geometry": { "type": "Point", "coordinates": [ 31.166061973814458, -23.945702628997928 ] } },
{ "type": "Feature", "properties": { "Name": "Punda Maria", "Type": "KNP Gate", "Access": "Public", "Lon": 31.01048065058071, "Lat": -22.737288654024038 }, "geometry": { "type": "Point", "coordinates": [ 31.01048065058071, -22.737288654024038 ] } },
{ "type": "Feature", "properties": { "Name": "Paul Kruger", "Type": "KNP Gate", "Access": "Public", "Lon": 31.484825272079146, "Lat": -24.981054292519527 }, "geometry": { "type": "Point", "coordinates": [ 31.484825272079146, -24.981054292519527 ] } },
{ "type": "Feature", "properties": { "Name": "Orpen", "Type": "KNP Gate", "Access": "Public", "Lon": 31.390454263127054, "Lat": -24.481379204477278 }, "geometry": { "type": "Point", "coordinates": [ 31.390454263127054, -24.481379204477278 ] } },
{ "type": "Feature", "properties": { "Name": "Pafuri Port of Entry", "Type": "Port of Entry", "Access": "Public", "Lon": 31.315532880688636, "Lat": -22.449221181672495 }, "geometry": { "type": "Point", "coordinates": [ 31.315532880688636, -22.449221181672495 ] } },
{ "type": "Feature", "properties": { "Name": "Phabeni", "Type": "KNP Gate", "Access": "Public", "Lon": 31.24188273415545, "Lat": -25.02502054780226 }, "geometry": { "type": "Point", "coordinates": [ 31.24188273415545, -25.02502054780226 ] } },
{ "type": "Feature", "properties": { "Name": "Giriyondo Port of Entry", "Type": "Port of Entry", "Access": "Public", "Lon": 31.659574820129603, "Lat": -23.584322996097619 }, "geometry": { "type": "Point", "coordinates": [ 31.659574820129603, -23.584322996097619 ] } },
{ "type": "Feature", "properties": { "Name": "Orpen Boom Gate", "Type": "KNP Gate", "Access": "Public", "Lon": 31.372259218347416, "Lat": -24.54197578776526 }, "geometry": { "type": "Point", "coordinates": [ 31.372259218347416, -24.54197578776526 ] } },
{ "type": "Feature", "properties": { "Name": "Toulon", "Type": "Private Gate", "Access": "Private", "Lon": 31.593969744860889, "Lat": -24.967155757043692 }, "geometry": { "type": "Point", "coordinates": [ 31.593969744860889, -24.967155757043692 ] } },
{ "type": "Feature", "properties": { "Name": "Afsaal", "Type": "Picnic spot", "Access": "Public", "Lon": 31.53269626733633, "Lat": -25.286789254237572 }, "geometry": { "type": "Point", "coordinates": [ 31.53269626733633, -25.286789254237572 ] } },
{ "type": "Feature", "properties": { "Name": "Mooiplaas", "Type": "Picnic spot", "Access": "Public", "Lon": 31.440983610993285, "Lat": -23.555882022013272 }, "geometry": { "type": "Point", "coordinates": [ 31.440983610993285, -23.555882022013272 ] } },
{ "type": "Feature", "properties": { "Name": "Muzandzeni", "Type": "Picnic spot", "Access": "Public", "Lon": 31.634742418902182, "Lat": -24.481674645113298 }, "geometry": { "type": "Point", "coordinates": [ 31.634742418902182, -24.481674645113298 ] } },
{ "type": "Feature", "properties": { "Name": "Nkuhlu", "Type": "Picnic spot", "Access": "Public", "Lon": 31.769121837934911, "Lat": -24.996922590710945 }, "geometry": { "type": "Point", "coordinates": [ 31.769121837934911, -24.996922590710945 ] } },
{ "type": "Feature", "properties": { "Name": "Pafuri", "Type": "Picnic spot", "Access": "Public", "Lon": 31.247388670219209, "Lat": -22.422757828920851 }, "geometry": { "type": "Point", "coordinates": [ 31.247388670219209, -22.422757828920851 ] } },
{ "type": "Feature", "properties": { "Name": "Timbavati", "Type": "Picnic spot", "Access": "Public", "Lon": 31.64534762231894, "Lat": -24.26056900622681 }, "geometry": { "type": "Point", "coordinates": [ 31.64534762231894, -24.26056900622681 ] } },
{ "type": "Feature", "properties": { "Name": "Tshokwane", "Type": "Picnic spot", "Access": "Public", "Lon": 31.859166940137079, "Lat": -24.785734127308331 }, "geometry": { "type": "Point", "coordinates": [ 31.859166940137079, -24.785734127308331 ] } },
{ "type": "Feature", "properties": { "Name": "Babalala", "Type": "Picnic spot", "Access": "Public", "Lon": 31.251676221504511, "Lat": -22.904966168896124 }, "geometry": { "type": "Point", "coordinates": [ 31.251676221504511, -22.904966168896124 ] } },
{ "type": "Feature", "properties": { "Name": "Nhlanguleni", "Type": "Picnic spot", "Access": "Public", "Lon": 31.656527903038292, "Lat": -24.710113479224106 }, "geometry": { "type": "Point", "coordinates": [ 31.656527903038292, -24.710113479224106 ] } },
{ "type": "Feature", "properties": { "Name": "Nwanetsi", "Type": "Picnic spot", "Access": "Public", "Lon": 31.976122628414036, "Lat": -24.457998476419313 }, "geometry": { "type": "Point", "coordinates": [ 31.976122628414036, -24.457998476419313 ] } },
{ "type": "Feature", "properties": { "Name": "Albasini Ruins", "Type": "Get out point", "Access": "Public", "Lon": 31.240115065574038, "Lat": -25.021236815542583 }, "geometry": { "type": "Point", "coordinates": [ 31.240115065574038, -25.021236815542583 ] } },
{ "type": "Feature", "properties": { "Name": "Hippo Pool", "Type": "Look out point", "Access": "Public", "Lon": 31.868900524885021, "Lat": -25.367010487800741 }, "geometry": { "type": "Point", "coordinates": [ 31.868900524885021, -25.367010487800741 ] } },
{ "type": "Feature", "properties": { "Name": "Kruger Tablets", "Type": "Get out point", "Access": "Public", "Lon": 31.774686314469573, "Lat": -24.871976162169908 }, "geometry": { "type": "Point", "coordinates": [ 31.774686314469573, -24.871976162169908 ] } },
{ "type": "Feature", "properties": { "Name": "Masorini", "Type": "Picnic spot", "Access": "Public", "Lon": 31.267113395997047, "Lat": -23.921622855763971 }, "geometry": { "type": "Point", "coordinates": [ 31.267113395997047, -23.921622855763971 ] } },
{ "type": "Feature", "properties": { "Name": "Mlondozi Dam", "Type": "Picnic spot", "Access": "Public", "Lon": 31.934926933661632, "Lat": -25.035623583559637 }, "geometry": { "type": "Point", "coordinates": [ 31.934926933661632, -25.035623583559637 ] } },
{ "type": "Feature", "properties": { "Name": "Nkumbe", "Type": "Get out point", "Access": "Public", "Lon": 31.894948829819654, "Lat": -24.857749965387143 }, "geometry": { "type": "Point", "coordinates": [ 31.894948829819654, -24.857749965387143 ] } },
{ "type": "Feature", "properties": { "Name": "N'wamanzi", "Type": "Get out point", "Access": "Public", "Lon": 31.667503236244187, "Lat": -24.017052735248424 }, "geometry": { "type": "Point", "coordinates": [ 31.667503236244187, -24.017052735248424 ] } },
{ "type": "Feature", "properties": { "Name": "Orpen Dam", "Type": "Get out point", "Access": "Public", "Lon": 31.89770069355486, "Lat": -24.792116124845972 }, "geometry": { "type": "Point", "coordinates": [ 31.89770069355486, -24.792116124845972 ] } },
{ "type": "Feature", "properties": { "Name": "Rabelais' Hut", "Type": "Get out point", "Access": "Public", "Lon": 31.468457594876547, "Lat": -24.468426691431464 }, "geometry": { "type": "Point", "coordinates": [ 31.468457594876547, -24.468426691431464 ] } },
{ "type": "Feature", "properties": { "Name": "Stevenson Hamilton", "Type": "Get out point", "Access": "Public", "Lon": 31.597658076396606, "Lat": -25.103987245803008 }, "geometry": { "type": "Point", "coordinates": [ 31.597658076396606, -25.103987245803008 ] } },
{ "type": "Feature", "properties": { "Name": "Tshanga", "Type": "Get out point", "Access": "Public", "Lon": 31.233390896715402, "Lat": -23.226886937063533 }, "geometry": { "type": "Point", "coordinates": [ 31.233390896715402, -23.226886937063533 ] } },
{ "type": "Feature", "properties": { "Name": "Longwe", "Type": "Get out point", "Access": "Public", "Lon": 31.641982012505625, "Lat": -23.825772524109741 }, "geometry": { "type": "Point", "coordinates": [ 31.641982012505625, -23.825772524109741 ] } },
{ "type": "Feature", "properties": { "Name": "Mathekenyane - Granokop", "Type": "Get out point", "Access": "Public", "Lon": 31.552431134383955, "Lat": -25.067125861077756 }, "geometry": { "type": "Point", "coordinates": [ 31.552431134383955, -25.067125861077756 ] } },
{ "type": "Feature", "properties": { "Name": "Renosterpan", "Type": "Look out point", "Access": "Public", "Lon": 31.508121679716481, "Lat": -25.323720913277228 }, "geometry": { "type": "Point", "coordinates": [ 31.508121679716481, -25.323720913277228 ] } },
{ "type": "Feature", "properties": { "Name": "Nyamundwa", "Type": "Look out point", "Access": "Public", "Lon": 31.333663030468433, "Lat": -25.024526046528393 }, "geometry": { "type": "Point", "coordinates": [ 31.333663030468433, -25.024526046528393 ] } },
{ "type": "Feature", "properties": { "Name": "Olifant Drinkgat", "Type": "Look out point", "Access": "Public", "Lon": 31.747981925915976, "Lat": -24.897443592326013 }, "geometry": { "type": "Point", "coordinates": [ 31.747981925915976, -24.897443592326013 ] } },
{ "type": "Feature", "properties": { "Name": "Baobab Tree", "Type": "Look out point", "Access": "Public", "Lon": 31.787697594844534, "Lat": -24.618589484094862 }, "geometry": { "type": "Point", "coordinates": [ 31.787697594844534, -24.618589484094862 ] } },
{ "type": "Feature", "properties": { "Name": "Mondzweni", "Type": "Look out point", "Access": "Public", "Lon": 31.638425811970247, "Lat": -24.558964353848054 }, "geometry": { "type": "Point", "coordinates": [ 31.638425811970247, -24.558964353848054 ] } },
{ "type": "Feature", "properties": { "Name": "Bobbejaankrans", "Type": "Look out point", "Access": "Public", "Lon": 31.523347147894572, "Lat": -24.405110688564896 }, "geometry": { "type": "Point", "coordinates": [ 31.523347147894572, -24.405110688564896 ] } },
{ "type": "Feature", "properties": { "Name": "Mingerhout", "Type": "Look out point", "Access": "Public", "Lon": 31.499144255827247, "Lat": -23.760852614564843 }, "geometry": { "type": "Point", "coordinates": [ 31.499144255827247, -23.760852614564843 ] } },
{ "type": "Feature", "properties": { "Name": "Red Rocks", "Type": "Get out point", "Access": "Public", "Lon": 31.293729890182828, "Lat": -23.181067841353787 }, "geometry": { "type": "Point", "coordinates": [ 31.293729890182828, -23.181067841353787 ] } },
{ "type": "Feature", "properties": { "Name": "Shipirivirhi", "Type": "Dam", "Access": "Public", "Lon": 31.375437646957312, "Lat": -23.110770067627598 }, "geometry": { "type": "Point", "coordinates": [ 31.375437646957312, -23.110770067627598 ] } },
{ "type": "Feature", "properties": { "Name": "Dzundwini", "Type": "Look out point", "Access": "Public", "Lon": 31.157099709595752, "Lat": -22.76981331790337 }, "geometry": { "type": "Point", "coordinates": [ 31.157099709595752, -22.76981331790337 ] } },
{ "type": "Feature", "properties": { "Name": "Thulamela", "Type": "Look out point", "Access": "Public", "Lon": 31.194861865698197, "Lat": -22.432472535502136 }, "geometry": { "type": "Point", "coordinates": [ 31.194861865698197, -22.432472535502136 ] } },
{ "type": "Feature", "properties": { "Name": "Witsand", "Type": "Dam", "Access": "Public", "Lon": 30.994225379784979, "Lat": -22.666602103173453 }, "geometry": { "type": "Point", "coordinates": [ 30.994225379784979, -22.666602103173453 ] } },
{ "type": "Feature", "properties": { "Name": "Mazanje", "Type": "Dam", "Access": "Public", "Lon": 31.194034411613817, "Lat": -22.565515415405859 }, "geometry": { "type": "Point", "coordinates": [ 31.194034411613817, -22.565515415405859 ] } },
{ "type": "Feature", "properties": { "Name": "Nwambu", "Type": "Dam", "Access": "Public", "Lon": 31.318727472324639, "Lat": -23.370154291333556 }, "geometry": { "type": "Point", "coordinates": [ 31.318727472324639, -23.370154291333556 ] } },
{ "type": "Feature", "properties": { "Name": "Olifantsbad Pan", "Type": "Pan", "Access": "Public", "Lon": 31.330426284555479, "Lat": -23.332658969747285 }, "geometry": { "type": "Point", "coordinates": [ 31.330426284555479, -23.332658969747285 ] } },
{ "type": "Feature", "properties": { "Name": "Matjulu", "Type": "Look out point", "Access": "Public", "Lon": 31.436456361706284, "Lat": -25.402832503844941 }, "geometry": { "type": "Point", "coordinates": [ 31.436456361706284, -25.402832503844941 ] } },
{ "type": "Feature", "properties": { "Name": "Silwervis", "Type": "Look out point", "Access": "Public", "Lon": 31.221651376260851, "Lat": -23.216155436289707 }, "geometry": { "type": "Point", "coordinates": [ 31.221651376260851, -23.216155436289707 ] } },
{ "type": "Feature", "properties": { "Name": "Magamba", "Type": "Dam", "Access": "Public", "Lon": 31.194229864041066, "Lat": -22.769095532581503 }, "geometry": { "type": "Point", "coordinates": [ 31.194229864041066, -22.769095532581503 ] } },
{ "type": "Feature", "properties": { "Name": "Berg-en-Dal", "Type": "Day visitor", "Access": "Public", "Lon": 31.45280475205421, "Lat": -25.445208724686708 }, "geometry": { "type": "Point", "coordinates": [ 31.45280475205421, -25.445208724686708 ] } },
{ "type": "Feature", "properties": { "Name": "Pretoriuskop", "Type": "Day visitor", "Access": "Public", "Lon": 31.258045228768253, "Lat": -25.156075140359128 }, "geometry": { "type": "Point", "coordinates": [ 31.258045228768253, -25.156075140359128 ] } },
{ "type": "Feature", "properties": { "Name": "Skukuza", "Type": "Day visitor", "Access": "Public", "Lon": 31.598375855393787, "Lat": -24.992208341278907 }, "geometry": { "type": "Point", "coordinates": [ 31.598375855393787, -24.992208341278907 ] } },
{ "type": "Feature", "properties": { "Name": "Lower Sabie", "Type": "Day visitor", "Access": "Public", "Lon": 31.915255803889647, "Lat": -25.120346281930061 }, "geometry": { "type": "Point", "coordinates": [ 31.915255803889647, -25.120346281930061 ] } },
{ "type": "Feature", "properties": { "Name": "Satara", "Type": "Day visitor", "Access": "Public", "Lon": 31.7795378796596, "Lat": -24.391625046275575 }, "geometry": { "type": "Point", "coordinates": [ 31.7795378796596, -24.391625046275575 ] } },
{ "type": "Feature", "properties": { "Name": "Letaba", "Type": "Day visitor", "Access": "Public", "Lon": 31.574951658974257, "Lat": -23.855258225218403 }, "geometry": { "type": "Point", "coordinates": [ 31.574951658974257, -23.855258225218403 ] } },
{ "type": "Feature", "properties": { "Name": "Mopani", "Type": "Day visitor", "Access": "Public", "Lon": 31.398385042066781, "Lat": -23.520748867526205 }, "geometry": { "type": "Point", "coordinates": [ 31.398385042066781, -23.520748867526205 ] } },
{ "type": "Feature", "properties": { "Name": "Shingwedzi", "Type": "Day visitor", "Access": "Public", "Lon": 31.43320394250226, "Lat": -23.108202348293691 }, "geometry": { "type": "Point", "coordinates": [ 31.43320394250226, -23.108202348293691 ] } },
{ "type": "Feature", "properties": { "Name": "Look out", "Type": "Get out point", "Access": "Public", "Lon": 31.568503936855763, "Lat": -24.407885160529226 }, "geometry": { "type": "Point", "coordinates": [ 31.568503936855763, -24.407885160529226 ] } },
{ "type": "Feature", "properties": { "Name": "View point", "Type": "Look out point", "Access": "Public", "Lon": 31.894413443272221, "Lat": -24.850085425840998 }, "geometry": { "type": "Point", "coordinates": [ 31.894413443272221, -24.850085425840998 ] } },
{ "type": "Feature", "properties": { "Name": "Olifants", "Type": "Get out point", "Access": "Public", "Lon": 31.774791777955471, "Lat": -23.981920003734452 }, "geometry": { "type": "Point", "coordinates": [ 31.774791777955471, -23.981920003734452 ] } },
{ "type": "Feature", "properties": { "Name": "Makhadzi", "Type": "Picnic spot", "Access": "Public", "Lon": 31.621258049454831, "Lat": -23.690705301672942 }, "geometry": { "type": "Point", "coordinates": [ 31.621258049454831, -23.690705301672942 ] } },
{ "type": "Feature", "properties": { "Name": "Punda Maria EE Centre", "Type": "Picnic spot", "Access": "Public", "Lon": 31.013220023348676, "Lat": -22.73441921843412 }, "geometry": { "type": "Point", "coordinates": [ 31.013220023348676, -22.73441921843412 ] } },
{ "type": "Feature", "properties": { "Name": "Afsaal", "Type": "Borehole", "Access": "Public", "Lon": 31.53319, "Lat": -25.28517 }, "geometry": { "type": "Point", "coordinates": [ 31.53319, -25.28517 ] } },
{ "type": "Feature", "properties": { "Name": "Ampie", "Type": "Borehole", "Access": "Public", "Lon": 31.52741, "Lat": -25.35544 }, "geometry": { "type": "Point", "coordinates": [ 31.52741, -25.35544 ] } },
{ "type": "Feature", "properties": { "Name": "Babalala", "Type": "Borehole", "Access": "Public", "Lon": 31.24928, "Lat": -22.90582 }, "geometry": { "type": "Point", "coordinates": [ 31.24928, -22.90582 ] } },
{ "type": "Feature", "properties": { "Name": "Balule", "Type": "Borehole", "Access": "Public", "Lon": 31.73373, "Lat": -24.05454 }, "geometry": { "type": "Point", "coordinates": [ 31.73373, -24.05454 ] } },
{ "type": "Feature", "properties": { "Name": "Bangu", "Type": "Borehole", "Access": "Public", "Lon": 31.82136, "Lat": -24.109 }, "geometry": { "type": "Point", "coordinates": [ 31.82136, -24.109 ] } },
{ "type": "Feature", "properties": { "Name": "Berg en Dal (previously Matjulu dam)", "Type": "Dam, concrete", "Access": "Public", "Lon": 31.45126, "Lat": -25.42546 }, "geometry": { "type": "Point", "coordinates": [ 31.45126, -25.42546 ] } },
{ "type": "Feature", "properties": { "Name": "Boulders rest camp", "Type": "Borehole", "Access": "Public", "Lon": 31.3795, "Lat": -23.6069 }, "geometry": { "type": "Point", "coordinates": [ 31.3795, -23.6069 ] } },
{ "type": "Feature", "properties": { "Name": "Bowker Kop", "Type": "Borehole", "Access": "Public", "Lon": 31.40047, "Lat": -23.49789 }, "geometry": { "type": "Point", "coordinates": [ 31.40047, -23.49789 ] } },
{ "type": "Feature", "properties": { "Name": "Boyela No. 1", "Type": "Borehole", "Access": "Public", "Lon": 31.28558, "Lat": -22.94192 }, "geometry": { "type": "Point", "coordinates": [ 31.28558, -22.94192 ] } },
{ "type": "Feature", "properties": { "Name": "Brak Kol", "Type": "Borehole", "Access": "Public", "Lon": 31.4748, "Lat": -25.2539 }, "geometry": { "type": "Point", "coordinates": [ 31.4748, -25.2539 ] } },
{ "type": "Feature", "properties": { "Name": "Coetzer", "Type": "Borehole", "Access": "Public", "Lon": 31.0214, "Lat": -22.6961 }, "geometry": { "type": "Point", "coordinates": [ 31.0214, -22.6961 ] } },
{ "type": "Feature", "properties": { "Name": "Crocodile Bridge rest camp", "Type": "Borehole", "Access": "Public", "Lon": 31.8947, "Lat": -25.3536 }, "geometry": { "type": "Point", "coordinates": [ 31.8947, -25.3536 ] } },
{ "type": "Feature", "properties": { "Name": "De Laporte", "Type": "Borehole", "Access": "Public", "Lon": 31.5691, "Lat": -25.05813 }, "geometry": { "type": "Point", "coordinates": [ 31.5691, -25.05813 ] } },
{ "type": "Feature", "properties": { "Name": "Eendrag", "Type": "Borehole", "Access": "Public", "Lon": 31.33172, "Lat": -23.4042 }, "geometry": { "type": "Point", "coordinates": [ 31.33172, -23.4042 ] } },
{ "type": "Feature", "properties": { "Name": "Engelhard Dam", "Type": "Dam, concrete weir", "Access": "Public", "Lon": 31.63766, "Lat": -23.83712 }, "geometry": { "type": "Point", "coordinates": [ 31.63766, -23.83712 ] } },
{ "type": "Feature", "properties": { "Name": "Erfplaas", "Type": "Borehole", "Access": "Public", "Lon": 31.30303, "Lat": -23.92063 }, "geometry": { "type": "Point", "coordinates": [ 31.30303, -23.92063 ] } },
{ "type": "Feature", "properties": { "Name": "Frazers Rus", "Type": "Borehole", "Access": "Public", "Lon": 31.31343, "Lat": -23.48262 }, "geometry": { "type": "Point", "coordinates": [ 31.31343, -23.48262 ] } },
{ "type": "Feature", "properties": { "Name": "Gezantfombi", "Type": "Dam, concrete", "Access": "Public", "Lon": 31.87876, "Lat": -25.33097 }, "geometry": { "type": "Point", "coordinates": [ 31.87876, -25.33097 ] } },
{ "type": "Feature", "properties": { "Name": "Girivana No. 1", "Type": "Borehole", "Access": "Public", "Lon": 31.5816, "Lat": -24.3586 }, "geometry": { "type": "Point", "coordinates": [ 31.5816, -24.3586 ] } },
{ "type": "Feature", "properties": { "Name": "Gomondwane No. 1", "Type": "Borehole", "Access": "Public", "Lon": 31.84552, "Lat": -25.25464 }, "geometry": { "type": "Point", "coordinates": [ 31.84552, -25.25464 ] } },
{ "type": "Feature", "properties": { "Name": "Grysbok", "Type": "Borehole", "Access": "Public", "Lon": 31.34872, "Lat": -23.4515 }, "geometry": { "type": "Point", "coordinates": [ 31.34872, -23.4515 ] } },
{ "type": "Feature", "properties": { "Name": "Gudzani", "Type": "Dam, concrete", "Access": "Public", "Lon": 31.92411, "Lat": -24.36281 }, "geometry": { "type": "Point", "coordinates": [ 31.92411, -24.36281 ] } },
{ "type": "Feature", "properties": { "Name": "Hamiltons Camp", "Type": "Borehole", "Access": "Public", "Lon": 31.66413, "Lat": -24.6164 }, "geometry": { "type": "Point", "coordinates": [ 31.66413, -24.6164 ] } },
{ "type": "Feature", "properties": { "Name": "Hillside No. 1", "Type": "Borehole", "Access": "Public", "Lon": 31.913, "Lat": -24.96862 }, "geometry": { "type": "Point", "coordinates": [ 31.913, -24.96862 ] } },
{ "type": "Feature", "properties": { "Name": "Jock of the Bushveld No. 1", "Type": "Borehole", "Access": "Public", "Lon": 31.5639, "Lat": -25.2105 }, "geometry": { "type": "Point", "coordinates": [ 31.5639, -25.2105 ] } },
{ "type": "Feature", "properties": { "Name": "Kanniedood", "Type": "Dam, concrete", "Access": "Public", "Lon": 31.45457, "Lat": -23.12675 }, "geometry": { "type": "Point", "coordinates": [ 31.45457, -23.12675 ] } },
{ "type": "Feature", "properties": { "Name": "Klein Shawu", "Type": "Borehole", "Access": "Public", "Lon": 31.4841, "Lat": -23.64132 }, "geometry": { "type": "Point", "coordinates": [ 31.4841, -23.64132 ] } },
{ "type": "Feature", "properties": { "Name": "Klopper Fontein", "Type": "Dam, concrete", "Access": "Public", "Lon": 31.17171, "Lat": -22.62867 }, "geometry": { "type": "Point", "coordinates": [ 31.17171, -22.62867 ] } },
{ "type": "Feature", "properties": { "Name": "Klopper Fontein No. 1", "Type": "Borehole", "Access": "Public", "Lon": 31.16501, "Lat": -22.63666 }, "geometry": { "type": "Point", "coordinates": [ 31.16501, -22.63666 ] } },
{ "type": "Feature", "properties": { "Name": "Komapiti", "Type": "Borehole", "Access": "Public", "Lon": 31.39655, "Lat": -25.21855 }, "geometry": { "type": "Point", "coordinates": [ 31.39655, -25.21855 ] } },
{ "type": "Feature", "properties": { "Name": "Kumana", "Type": "Dam, earthen", "Access": "Public", "Lon": 31.79528, "Lat": -24.61963 }, "geometry": { "type": "Point", "coordinates": [ 31.79528, -24.61963 ] } },
{ "type": "Feature", "properties": { "Name": "Kumana No. 1", "Type": "Borehole", "Access": "Public", "Lon": 31.79523, "Lat": -24.61845 }, "geometry": { "type": "Point", "coordinates": [ 31.79523, -24.61845 ] } },
{ "type": "Feature", "properties": { "Name": "Kwaggas Pan", "Type": "Borehole", "Access": "Public", "Lon": 31.55894, "Lat": -25.14479 }, "geometry": { "type": "Point", "coordinates": [ 31.55894, -25.14479 ] } },
{ "type": "Feature", "properties": { "Name": "Lake Panic (lower)", "Type": "Dam, earthen", "Access": "Public", "Lon": 31.57438, "Lat": -24.98509 }, "geometry": { "type": "Point", "coordinates": [ 31.57438, -24.98509 ] } },
{ "type": "Feature", "properties": { "Name": "Lake Panic (upper)", "Type": "Dam, earthen", "Access": "Public", "Lon": 31.57008, "Lat": -24.98173 }, "geometry": { "type": "Point", "coordinates": [ 31.57008, -24.98173 ] } },
{ "type": "Feature", "properties": { "Name": "Lamont", "Type": "Borehole", "Access": "Public", "Lon": 31.40492, "Lat": -23.0713 }, "geometry": { "type": "Point", "coordinates": [ 31.40492, -23.0713 ] } },
{ "type": "Feature", "properties": { "Name": "Letaba rest camp", "Type": "Borehole", "Access": "Public", "Lon": 31.5714, "Lat": -23.8544 }, "geometry": { "type": "Point", "coordinates": [ 31.5714, -23.8544 ] } },
{ "type": "Feature", "properties": { "Name": "Lisbon Weir", "Type": "Dam, concrete", "Access": "Public", "Lon": 31.43134, "Lat": -24.98383 }, "geometry": { "type": "Point", "coordinates": [ 31.43134, -24.98383 ] } },
{ "type": "Feature", "properties": { "Name": "Louis se gat (Mbuhle)", "Type": "Borehole", "Access": "Public", "Lon": 31.45727, "Lat": -23.11 }, "geometry": { "type": "Point", "coordinates": [ 31.45727, -23.11 ] } },
{ "type": "Feature", "properties": { "Name": "Machangani No. 1", "Type": "Borehole", "Access": "Public", "Lon": 31.22687, "Lat": -23.91843 }, "geometry": { "type": "Point", "coordinates": [ 31.22687, -23.91843 ] } },
{ "type": "Feature", "properties": { "Name": "Magamba No. 1", "Type": "Borehole", "Access": "Public", "Lon": 31.19412, "Lat": -22.76925 }, "geometry": { "type": "Point", "coordinates": [ 31.19412, -22.76925 ] } },
{ "type": "Feature", "properties": { "Name": "Makhadzi", "Type": "Borehole", "Access": "Public", "Lon": 31.6195, "Lat": -23.69553 }, "geometry": { "type": "Point", "coordinates": [ 31.6195, -23.69553 ] } },
{ "type": "Feature", "properties": { "Name": "Malelane Gate No. 1", "Type": "Borehole", "Access": "Public", "Lon": 31.5083, "Lat": -25.48028 }, "geometry": { "type": "Point", "coordinates": [ 31.5083, -25.48028 ] } },
{ "type": "Feature", "properties": { "Name": "Malopenyana", "Type": "Borehole", "Access": "Public", "Lon": 31.54238, "Lat": -23.70972 }, "geometry": { "type": "Point", "coordinates": [ 31.54238, -23.70972 ] } },
{ "type": "Feature", "properties": { "Name": "Mantimahle dam", "Type": "Dam, earthen", "Access": "Public", "Lon": 31.73029, "Lat": -24.89878 }, "geometry": { "type": "Point", "coordinates": [ 31.73029, -24.89878 ] } },
{ "type": "Feature", "properties": { "Name": "Manzimhlophe No. 1", "Type": "Borehole", "Access": "Public", "Lon": 31.73529, "Lat": -24.84305 }, "geometry": { "type": "Point", "coordinates": [ 31.73529, -24.84305 ] } },
{ "type": "Feature", "properties": { "Name": "Maroela", "Type": "Borehole", "Access": "Public", "Lon": 31.39856, "Lat": -24.45689 }, "geometry": { "type": "Point", "coordinates": [ 31.39856, -24.45689 ] } },
{ "type": "Feature", "properties": { "Name": "Mashagadzi", "Type": "Borehole", "Access": "Public", "Lon": 31.41997, "Lat": -23.14042 }, "geometry": { "type": "Point", "coordinates": [ 31.41997, -23.14042 ] } },
{ "type": "Feature", "properties": { "Name": "Mashikiri No. 1", "Type": "Borehole", "Access": "Public", "Lon": 31.18178, "Lat": -22.58691 }, "geometry": { "type": "Point", "coordinates": [ 31.18178, -22.58691 ] } },
{ "type": "Feature", "properties": { "Name": "Masorini", "Type": "Borehole", "Access": "Public", "Lon": 31.27442, "Lat": -23.92665 }, "geometry": { "type": "Point", "coordinates": [ 31.27442, -23.92665 ] } },
{ "type": "Feature", "properties": { "Name": "Matjulu No. 1", "Type": "Borehole", "Access": "Public", "Lon": 31.4365, "Lat": -25.40305 }, "geometry": { "type": "Point", "coordinates": [ 31.4365, -25.40305 ] } },
{ "type": "Feature", "properties": { "Name": "Mazithi", "Type": "Dam, earthen", "Access": "Public", "Lon": 31.83596, "Lat": -24.72157 }, "geometry": { "type": "Point", "coordinates": [ 31.83596, -24.72157 ] } },
{ "type": "Feature", "properties": { "Name": "Mestel", "Type": "Dam, earthen", "Access": "Public", "Lon": 31.215, "Lat": -25.11726 }, "geometry": { "type": "Point", "coordinates": [ 31.215, -25.11726 ] } },
{ "type": "Feature", "properties": { "Name": "Mhisana Mond No. 1", "Type": "Borehole", "Access": "Public", "Lon": 31.71928, "Lat": -24.61517 }, "geometry": { "type": "Point", "coordinates": [ 31.71928, -24.61517 ] } },
{ "type": "Feature", "properties": { "Name": "Mingerhout", "Type": "Dam, concrete weir", "Access": "Public", "Lon": 31.49958, "Lat": -23.75916 }, "geometry": { "type": "Point", "coordinates": [ 31.49958, -23.75916 ] } },
{ "type": "Feature", "properties": { "Name": "Mlondozi No. 1", "Type": "Borehole", "Access": "Public", "Lon": 31.9331, "Lat": -25.03712 }, "geometry": { "type": "Point", "coordinates": [ 31.9331, -25.03712 ] } },
{ "type": "Feature", "properties": { "Name": "Mlondozi", "Type": "Dam, earthen", "Access": "Public", "Lon": 31.92907, "Lat": -25.03528 }, "geometry": { "type": "Point", "coordinates": [ 31.92907, -25.03528 ] } },
{ "type": "Feature", "properties": { "Name": "Mooiplaas", "Type": "Dam, earthen", "Access": "Public", "Lon": 31.44371, "Lat": -23.53151 }, "geometry": { "type": "Point", "coordinates": [ 31.44371, -23.53151 ] } },
{ "type": "Feature", "properties": { "Name": "Mooiplaas Picnic Site", "Type": "Borehole", "Access": "Public", "Lon": 31.44215, "Lat": -23.54001 }, "geometry": { "type": "Point", "coordinates": [ 31.44215, -23.54001 ] } },
{ "type": "Feature", "properties": { "Name": "Mooiplaas Ranger Quarters", "Type": "Borehole", "Access": "Public", "Lon": 31.4405, "Lat": -23.53854 }, "geometry": { "type": "Point", "coordinates": [ 31.4405, -23.53854 ] } },
{ "type": "Feature", "properties": { "Name": "Mopani", "Type": "Borehole", "Access": "Public", "Lon": 31.4, "Lat": -23.5267 }, "geometry": { "type": "Point", "coordinates": [ 31.4, -23.5267 ] } },
{ "type": "Feature", "properties": { "Name": "Mpondo", "Type": "Dam, earthen", "Access": "Public", "Lon": 31.71681, "Lat": -25.20195 }, "geometry": { "type": "Point", "coordinates": [ 31.71681, -25.20195 ] } },
{ "type": "Feature", "properties": { "Name": "Muhlambamadvube No. 1", "Type": "Borehole", "Access": "Public", "Lon": 31.59445, "Lat": -25.20538 }, "geometry": { "type": "Point", "coordinates": [ 31.59445, -25.20538 ] } },
{ "type": "Feature", "properties": { "Name": "Nandzana", "Type": "Borehole", "Access": "Public", "Lon": 31.28942, "Lat": -23.83262 }, "geometry": { "type": "Point", "coordinates": [ 31.28942, -23.83262 ] } },
{ "type": "Feature", "properties": { "Name": "Ngotso", "Type": "Dam, concrete weir", "Access": "Public", "Lon": 31.7211, "Lat": -24.10367 }, "geometry": { "type": "Point", "coordinates": [ 31.7211, -24.10367 ] } },
{ "type": "Feature", "properties": { "Name": "Ngotso South", "Type": "Pipeline trough", "Access": "Public", "Lon": 31.7206, "Lat": -24.2075 }, "geometry": { "type": "Point", "coordinates": [ 31.7206, -24.2075 ] } },
{ "type": "Feature", "properties": { "Name": "Ngotso North", "Type": "Pipeline trough", "Access": "Public", "Lon": 31.7074, "Lat": -24.12987 }, "geometry": { "type": "Point", "coordinates": [ 31.7074, -24.12987 ] } },
{ "type": "Feature", "properties": { "Name": "Ngwenyeni", "Type": "Dam, concrete weir", "Access": "Public", "Lon": 31.67159, "Lat": -24.62104 }, "geometry": { "type": "Point", "coordinates": [ 31.67159, -24.62104 ] } },
{ "type": "Feature", "properties": { "Name": "Ngwenyeni (Phalaborwa) No. 1", "Type": "Borehole", "Access": "Public", "Lon": 31.23875, "Lat": -23.85815 }, "geometry": { "type": "Point", "coordinates": [ 31.23875, -23.85815 ] } },
{ "type": "Feature", "properties": { "Name": "Nhlanganini ('Winkelhaak')", "Type": "Dam, concrete", "Access": "Public", "Lon": 31.49454, "Lat": -23.93523 }, "geometry": { "type": "Point", "coordinates": [ 31.49454, -23.93523 ] } },
{ "type": "Feature", "properties": { "Name": "Nhlangwini breeding camp", "Type": "Borehole", "Access": "Public", "Lon": 31.29409, "Lat": -25.20501 }, "geometry": { "type": "Point", "coordinates": [ 31.29409, -25.20501 ] } },
{ "type": "Feature", "properties": { "Name": "Nkovakulu No. 1", "Type": "Borehole", "Access": "Public", "Lon": 31.19058, "Lat": -22.53061 }, "geometry": { "type": "Point", "coordinates": [ 31.19058, -22.53061 ] } },
{ "type": "Feature", "properties": { "Name": "Nsemani", "Type": "Dam, earthen", "Access": "Public", "Lon": 31.71945, "Lat": -24.39361 }, "geometry": { "type": "Point", "coordinates": [ 31.71945, -24.39361 ] } },
{ "type": "Feature", "properties": { "Name": "N'wambu No. 1", "Type": "Borehole", "Access": "Public", "Lon": 31.31869, "Lat": -23.37051 }, "geometry": { "type": "Point", "coordinates": [ 31.31869, -23.37051 ] } },
{ "type": "Feature", "properties": { "Name": "N'wanetsi", "Type": "Dam, concrete weir", "Access": "Public", "Lon": 31.98101, "Lat": -24.45389 }, "geometry": { "type": "Point", "coordinates": [ 31.98101, -24.45389 ] } },
{ "type": "Feature", "properties": { "Name": "N'wanetsi Letaba", "Type": "Borehole", "Access": "Public", "Lon": 31.417454, "Lat": -23.87354 }, "geometry": { "type": "Point", "coordinates": [ 31.417454, -23.87354 ] } },
{ "type": "Feature", "properties": { "Name": "N'watimhiri", "Type": "Dam, earthen", "Access": "Public", "Lon": 31.80096, "Lat": -25.05469 }, "geometry": { "type": "Point", "coordinates": [ 31.80096, -25.05469 ] } },
{ "type": "Feature", "properties": { "Name": "Nyamarhi", "Type": "Pipeline trough", "Access": "Public", "Lon": 31.7194, "Lat": -24.1678 }, "geometry": { "type": "Point", "coordinates": [ 31.7194, -24.1678 ] } },
{ "type": "Feature", "properties": { "Name": "Nyamundwa", "Type": "Dam, earthen", "Access": "Public", "Lon": 31.33416, "Lat": -25.02574 }, "geometry": { "type": "Point", "coordinates": [ 31.33416, -25.02574 ] } },
{ "type": "Feature", "properties": { "Name": "Opsaal", "Type": "Borehole", "Access": "Public", "Lon": 31.1759, "Lat": -22.62333 }, "geometry": { "type": "Point", "coordinates": [ 31.1759, -22.62333 ] } },
{ "type": "Feature", "properties": { "Name": "Orpen", "Type": "Borehole", "Access": "Public", "Lon": 31.393, "Lat": -24.4714 }, "geometry": { "type": "Point", "coordinates": [ 31.393, -24.4714 ] } },
{ "type": "Feature", "properties": { "Name": "Pafuri Ranger Quarters No. 1", "Type": "Borehole", "Access": "Public", "Lon": 31.20982, "Lat": -22.41927 }, "geometry": { "type": "Point", "coordinates": [ 31.20982, -22.41927 ] } },
{ "type": "Feature", "properties": { "Name": "Piet Grobler", "Type": "Dam, concrete", "Access": "Public", "Lon": 31.63333, "Lat": -24.23278 }, "geometry": { "type": "Point", "coordinates": [ 31.63333, -24.23278 ] } },
{ "type": "Feature", "properties": { "Name": "Pionier", "Type": "Dam, concrete", "Access": "Public", "Lon": 31.39252, "Lat": -23.52389 }, "geometry": { "type": "Point", "coordinates": [ 31.39252, -23.52389 ] } },
{ "type": "Feature", "properties": { "Name": "Punda Maria Gate No. 1", "Type": "Borehole", "Access": "Public", "Lon": 31.01041, "Lat": -22.73857 }, "geometry": { "type": "Point", "coordinates": [ 31.01041, -22.73857 ] } },
{ "type": "Feature", "properties": { "Name": "Punda Marial personnel quarters No. 1", "Type": "Borehole", "Access": "Public", "Lon": 31.02373, "Lat": -22.69193 }, "geometry": { "type": "Point", "coordinates": [ 31.02373, -22.69193 ] } },
{ "type": "Feature", "properties": { "Name": "Punda Maria rest camp No. 1", "Type": "Borehole", "Access": "Public", "Lon": 31.01172, "Lat": -22.7347 }, "geometry": { "type": "Point", "coordinates": [ 31.01172, -22.7347 ] } },
{ "type": "Feature", "properties": { "Name": "Red Rocks", "Type": "Borehole", "Access": "Public", "Lon": 31.29358, "Lat": -23.18171 }, "geometry": { "type": "Point", "coordinates": [ 31.29358, -23.18171 ] } },
{ "type": "Feature", "properties": { "Name": "Renoster Pan", "Type": "Borehole", "Access": "Public", "Lon": 31.51185, "Lat": -25.32471 }, "geometry": { "type": "Point", "coordinates": [ 31.51185, -25.32471 ] } },
{ "type": "Feature", "properties": { "Name": "Roodewal", "Type": "Borehole", "Access": "Public", "Lon": 31.63462, "Lat": -24.14307 }, "geometry": { "type": "Point", "coordinates": [ 31.63462, -24.14307 ] } },
{ "type": "Feature", "properties": { "Name": "Sable", "Type": "Dam, earthen", "Access": "Public", "Lon": 31.23722, "Lat": -23.93908 }, "geometry": { "type": "Point", "coordinates": [ 31.23722, -23.93908 ] } },
{ "type": "Feature", "properties": { "Name": "Sable Hide", "Type": "Borehole", "Access": "Public", "Lon": 31.23862, "Lat": -23.93467 }, "geometry": { "type": "Point", "coordinates": [ 31.23862, -23.93467 ] } },
{ "type": "Feature", "properties": { "Name": "Samevloeiing", "Type": "Borehole", "Access": "Public", "Lon": 31.30389, "Lat": -22.42404 }, "geometry": { "type": "Point", "coordinates": [ 31.30389, -22.42404 ] } },
{ "type": "Feature", "properties": { "Name": "Sand River bush camp", "Type": "Borehole", "Access": "Public", "Lon": 31.68403, "Lat": -24.94883 }, "geometry": { "type": "Point", "coordinates": [ 31.68403, -24.94883 ] } },
{ "type": "Feature", "properties": { "Name": "Sand River military base No. 1", "Type": "Borehole", "Access": "Public", "Lon": 31.68294, "Lat": -24.94674 }, "geometry": { "type": "Point", "coordinates": [ 31.68294, -24.94674 ] } },
{ "type": "Feature", "properties": { "Name": "Sandpiper", "Type": "Borehole", "Access": "Public", "Lon": 31.31581, "Lat": -23.02046 }, "geometry": { "type": "Point", "coordinates": [ 31.31581, -23.02046 ] } },
{ "type": "Feature", "properties": { "Name": "Satara No. 1", "Type": "Borehole", "Access": "Public", "Lon": 31.77833, "Lat": -24.39778 }, "geometry": { "type": "Point", "coordinates": [ 31.77833, -24.39778 ] } },
{ "type": "Feature", "properties": { "Name": "Satara trough (East)", "Type": "Pipeline trough", "Access": "Public", "Lon": 31.780721, "Lat": -24.393565 }, "geometry": { "type": "Point", "coordinates": [ 31.780721, -24.393565 ] } },
{ "type": "Feature", "properties": { "Name": "Satara trough (North)", "Type": "Pipeline trough", "Access": "Public", "Lon": 31.776221, "Lat": -24.391015 }, "geometry": { "type": "Point", "coordinates": [ 31.776221, -24.391015 ] } },
{ "type": "Feature", "properties": { "Name": "Shibotwana No. 1", "Type": "Borehole", "Access": "Public", "Lon": 31.84702, "Lat": -24.39305 }, "geometry": { "type": "Point", "coordinates": [ 31.84702, -24.39305 ] } },
{ "type": "Feature", "properties": { "Name": "Shidakeni", "Type": "Borehole", "Access": "Public", "Lon": 31.63823, "Lat": -23.6671 }, "geometry": { "type": "Point", "coordinates": [ 31.63823, -23.6671 ] } },
{ "type": "Feature", "properties": { "Name": "Shimangwaneni", "Type": "Dam, earthen", "Access": "Public", "Lon": 31.63896, "Lat": -24.50352 }, "geometry": { "type": "Point", "coordinates": [ 31.63896, -24.50352 ] } },
{ "type": "Feature", "properties": { "Name": "Shingwedzi rest camp No. 1", "Type": "Borehole", "Access": "Public", "Lon": 31.43412, "Lat": -23.10765 }, "geometry": { "type": "Point", "coordinates": [ 31.43412, -23.10765 ] } },
{ "type": "Feature", "properties": { "Name": "Shipandani", "Type": "Borehole", "Access": "Public", "Lon": 31.4092, "Lat": -23.5336 }, "geometry": { "type": "Point", "coordinates": [ 31.4092, -23.5336 ] } },
{ "type": "Feature", "properties": { "Name": "Shiphampanane", "Type": "Borehole", "Access": "Public", "Lon": 31.4897, "Lat": -25.12351 }, "geometry": { "type": "Point", "coordinates": [ 31.4897, -25.12351 ] } },
{ "type": "Feature", "properties": { "Name": "Shisha", "Type": "Dam, concrete weir", "Access": "Public", "Lon": 31.23903, "Lat": -22.84222 }, "geometry": { "type": "Point", "coordinates": [ 31.23903, -22.84222 ] } },
{ "type": "Feature", "properties": { "Name": "Shitlhave", "Type": "Dam, earthen", "Access": "Public", "Lon": 31.32519, "Lat": -25.14517 }, "geometry": { "type": "Point", "coordinates": [ 31.32519, -25.14517 ] } },
{ "type": "Feature", "properties": { "Name": "Silwervis", "Type": "Dam, concrete", "Access": "Public", "Lon": 31.22333, "Lat": -23.21889 }, "geometry": { "type": "Point", "coordinates": [ 31.22333, -23.21889 ] } },
{ "type": "Feature", "properties": { "Name": "Stapel Kop", "Type": "Dam, earthen", "Access": "Public", "Lon": 31.25191, "Lat": -23.59353 }, "geometry": { "type": "Point", "coordinates": [ 31.25191, -23.59353 ] } },
{ "type": "Feature", "properties": { "Name": "Sunset Dam", "Type": "Dam, earthen", "Access": "Public", "Lon": 31.91149, "Lat": -25.11735 }, "geometry": { "type": "Point", "coordinates": [ 31.91149, -25.11735 ] } },
{ "type": "Feature", "properties": { "Name": "Talamati No. 1", "Type": "Borehole", "Access": "Public", "Lon": 31.55492, "Lat": -24.55623 }, "geometry": { "type": "Point", "coordinates": [ 31.55492, -24.55623 ] } },
{ "type": "Feature", "properties": { "Name": "Tihongonyeni", "Type": "Borehole", "Access": "Public", "Lon": 31.44761, "Lat": -23.43857 }, "geometry": { "type": "Point", "coordinates": [ 31.44761, -23.43857 ] } },
{ "type": "Feature", "properties": { "Name": "Transport (Vervoer)", "Type": "Dam, earthen", "Access": "Public", "Lon": 31.49246, "Lat": -25.11842 }, "geometry": { "type": "Point", "coordinates": [ 31.49246, -25.11842 ] } },
{ "type": "Feature", "properties": { "Name": "Tsale No. 1", "Type": "Borehole", "Access": "Public", "Lon": 31.36358, "Lat": -23.65928 }, "geometry": { "type": "Point", "coordinates": [ 31.36358, -23.65928 ] } },
{ "type": "Feature", "properties": { "Name": "Twanana", "Type": "Borehole", "Access": "Public", "Lon": 31.37972, "Lat": -23.52254 }, "geometry": { "type": "Point", "coordinates": [ 31.37972, -23.52254 ] } },
{ "type": "Feature", "properties": { "Name": "Voetpad", "Type": "Borehole", "Access": "Public", "Lon": 31.52492, "Lat": -23.301 }, "geometry": { "type": "Point", "coordinates": [ 31.52492, -23.301 ] } },
{ "type": "Feature", "properties": { "Name": "Voortrekker ('Mitomeni')", "Type": "Borehole", "Access": "Public", "Lon": 31.46476, "Lat": -25.25387 }, "geometry": { "type": "Point", "coordinates": [ 31.46476, -25.25387 ] } },
{ "type": "Feature", "properties": { "Name": "Welverdiend", "Type": "Borehole", "Access": "Public", "Lon": 31.70319, "Lat": -24.50473 }, "geometry": { "type": "Point", "coordinates": [ 31.70319, -24.50473 ] } },
{ "type": "Feature", "properties": { "Name": "Wenela", "Type": "Dam, concrete weir", "Access": "Public", "Lon": 31.97685, "Lat": -24.44577 }, "geometry": { "type": "Point", "coordinates": [ 31.97685, -24.44577 ] } },
{ "type": "Feature", "properties": { "Name": "Witpens", "Type": "Pipeline trough", "Access": "Public", "Lon": 31.75098, "Lat": -24.32793 }, "geometry": { "type": "Point", "coordinates": [ 31.75098, -24.32793 ] } }
]
}
