{
"type": "FeatureCollection",
"name": "intersection_issue_sample",
"crs": { "type": "name", "properties": { "name": "urn:ogc:def:crs:OGC:1.3:CRS84" } },
"features": [
{ "type": "Feature", "properties": { "OBJECTID": 1521, "ACCESS": "Public", "CODE": "H11", "NAME": "Kruger Gate Road", "BOUNDARY": null, "CLASS_DEFI": "Tourist Tar Road", "SURFACE": "Tar", "LENGTH_KM": 0.36391069804999998, "CLASS": "Tourist Tar Road", "Alias": null, "Category": "Transit", "Type": "A1", "Speed": 50 }, "geometry": { "type": "MultiLineString", "coordinates": [ [ [ 31.483367093883256, -24.980053963577884 ], [ 31.484143377867309, -24.980549438029151 ], [ 31.484588581572005, -24.980881225514381 ], [ 31.484912424885596, -24.981202571327298 ], [ 31.48498011741296, -24.981424479051782 ], [ 31.485137850385055, -24.981552942721397 ], [ 31.485334876439918, -24.981677695383947 ], [ 31.485610080427897, -24.981691128611075 ], [ 31.485819158103268, -24.981666964752698 ], [ 31.486157205825023, -24.981882809077106 ] ] ] } },
{ "type": "Feature", "properties": { "OBJECTID": 1521, "ACCESS": "Public", "CODE": "H11", "NAME": "Kruger Gate Road", "BOUNDARY": null, "CLASS_DEFI": "Tourist Tar Road", "SURFACE": "Tar", "LENGTH_KM": 3.5545261827100001, "CLASS": "Tourist Tar Road", "Alias": null, "Category": "Transit", "Type": "A1", "Speed": 50 }, "geometry": { "type": "MultiLineString", "coordinates": [ [ [ 31.486157205825023, -24.981882809077106 ], [ 31.48691388704113, -24.982385498142452 ], [ 31.488131642396407, -24.983184036910849 ], [ 31.489881399324183, -24.984317590134395 ], [ 31.491792821165767, -24.985568817515038 ], [ 31.493921050253352, -24.986962608590808 ], [ 31.494839231528619, -24.987532791606579 ], [ 31.495585435488682, -24.987943040238314 ], [ 31.496304647757178, -24.988308941739071 ], [ 31.497549086015667, -24.988870853787034 ], [ 31.498734137979039, -24.989325473131917 ], [ 31.499489887371858, -24.989573727653564 ], [ 31.500761041717904, -24.989931308580378 ], [ 31.501650290810467, -24.990139692950944 ], [ 31.502972063601451, -24.99037527224068 ], [ 31.503923864085593, -24.990497446606941 ], [ 31.504730001578942, -24.990566368472109 ], [ 31.505882034539837, -24.990626945014032 ], [ 31.506534602218032, -24.99063189045264 ], [ 31.507312916288779, -24.990625656266747 ], [ 31.509226161446144, -24.990536002441228 ], [ 31.50980531138298, -24.990531630899483 ], [ 31.510235164086335, -24.990546876848661 ], [ 31.510873394675581, -24.990570482464083 ], [ 31.511687439234326, -24.99064937099233 ], [ 31.512683933948615, -24.990803579782479 ], [ 31.513859031721051, -24.991052703840595 ], [ 31.514664503543706, -24.991274435878292 ], [ 31.515288429743954, -24.991482768469488 ], [ 31.515903863512207, -24.991723188171164 ], [ 31.516463093009452, -24.991967737795715 ], [ 31.517580953392656, -24.992500063926435 ], [ 31.518248025313461, -24.99283675470214 ] ] ] } },
{ "type": "Feature", "properties": { "OBJECTID": 1559, "ACCESS": "Public", "CODE": "S3", "NAME": "Albasini Road", "BOUNDARY": null, "CLASS_DEFI": "Tourist Gravel Road", "SURFACE": "Graded", "LENGTH_KM": 0.37038254792999997, "CLASS": "Tourist Gravel Road", "Alias": null, "Category": "Tourist", "Type": "B1", "Speed": 40 }, "geometry": { "type": "MultiLineString", "coordinates": [ [ [ 31.482812824328359, -24.982727353083796 ], [ 31.483105571255198, -24.982535325065584 ], [ 31.483602769917141, -24.98235696317311 ], [ 31.484199507396252, -24.982168721944369 ], [ 31.484581803174869, -24.982085497425015 ], [ 31.485216004144647, -24.982103311262204 ], [ 31.485525537699086, -24.982183510034208 ], [ 31.485686820655616, -24.98220352471828 ], [ 31.485834715030833, -24.98217294724768 ], [ 31.486033513588566, -24.982081536132942 ], [ 31.486227894930888, -24.981929770594569 ] ] ] } },
{ "type": "Feature", "properties": { "OBJECTID": 926, "ACCESS": "Private", "CODE": null, "NAME": "Tinga Narina Camp Road", "BOUNDARY": null, "CLASS_DEFI": "Private Tourist Gravel Road", "SURFACE": "Gravel", "LENGTH_KM": 2.7504399429099999, "CLASS": "Concession Road", "Alias": null, "Category": "Concession Road", "Type": "E1", "Speed": 40 }, "geometry": { "type": "MultiLineString", "coordinates": [ [ [ 31.503515259966306, -24.976074759727275 ], [ 31.503255717283757, -24.975864310298739 ], [ 31.502956125984539, -24.975498175184036 ], [ 31.502641203534193, -24.975099634311121 ], [ 31.501894856301892, -24.973968118202354 ], [ 31.50162575680001, -24.973573620003275 ], [ 31.501423807209452, -24.973044821173474 ], [ 31.501422958921555, -24.972790388351193 ], [ 31.501439937355922, -24.972038036710138 ], [ 31.501355979187633, -24.971829351868088 ], [ 31.5012002261725, -24.971705946686708 ], [ 31.500939310279577, -24.971555801004676 ], [ 31.500534927407799, -24.971457961369936 ], [ 31.499788109498986, -24.971394893234393 ], [ 31.499269768341914, -24.971455364695181 ], [ 31.499013474621378, -24.971518476937767 ], [ 31.498671507665513, -24.971622531441376 ], [ 31.49824918551321, -24.971869111980944 ], [ 31.49783945646189, -24.972157625104163 ], [ 31.497475584210889, -24.972446599912452 ], [ 31.497164773386114, -24.972682357952227 ], [ 31.496779804269035, -24.972940738746885 ], [ 31.496130127429829, -24.973173589102831 ], [ 31.495630592126865, -24.973336454292518 ], [ 31.495386346181839, -24.973452747207663 ], [ 31.495213832887238, -24.973630174937231 ], [ 31.49514584933166, -24.973832548860251 ], [ 31.495109968121856, -24.974088998815663 ], [ 31.495112304717971, -24.974435420990741 ], [ 31.495081157773829, -24.974841228487112 ], [ 31.494956982987521, -24.975353598264746 ], [ 31.494912732316465, -24.97575927314525 ], [ 31.494845982572393, -24.975860128712334 ], [ 31.494726966748555, -24.97594851087586 ], [ 31.494345821161019, -24.976040213773146 ], [ 31.493991171674349, -24.976108294238458 ], [ 31.493400306700369, -24.976203844816599 ], [ 31.492731114928045, -24.97627471026761 ], [ 31.491629236773605, -24.976365077709794 ], [ 31.490860331480608, -24.976515841636513 ], [ 31.490027333967088, -24.976623563759183 ], [ 31.489494989638821, -24.976755526582242 ], [ 31.488862985929281, -24.976999950745515 ], [ 31.487778977531566, -24.977207813629597 ], [ 31.486786450765475, -24.977331548222093 ], [ 31.486389338497876, -24.977520653056324 ], [ 31.486036901353888, -24.977728490180453 ], [ 31.485711935456081, -24.977940189361185 ], [ 31.485293748520654, -24.978380277976402 ], [ 31.484955845420085, -24.978685012635378 ], [ 31.48468384429534, -24.979065669309804 ], [ 31.484541768782641, -24.979238376811587 ], [ 31.484484198777213, -24.979349233428081 ], [ 31.484367019874188, -24.979574872016116 ], [ 31.484277025003223, -24.979860628984454 ], [ 31.484155494100499, -24.980153231487492 ] ] ] } },
{ "type": "Feature", "properties": { "OBJECTID": 0, "ACCESS": "Staff", "CODE": null, "NAME": "Kruger Gate living quarters", "BOUNDARY": "Section & Western Boundary", "CLASS_DEFI": "Management Road", "SURFACE": "Graded", "LENGTH_KM": 0.16369833537, "CLASS": "Management Road", "Alias": null, "Category": "Management", "Type": "D1", "Speed": 40 }, "geometry": { "type": "MultiLineString", "coordinates": [ [ [ 31.48547943861092, -24.980373952460212 ], [ 31.485454914658312, -24.980236338429965 ], [ 31.485384163698185, -24.980128115751636 ], [ 31.485358981465694, -24.980044246311628 ], [ 31.485308251295166, -24.979906365533562 ], [ 31.485237427476964, -24.979804114418211 ], [ 31.48514025108604, -24.97971353975873 ], [ 31.485003399467796, -24.979652422979179 ], [ 31.484912482238393, -24.979585801365605 ], [ 31.484794846514603, -24.979560714232292 ], [ 31.484618685795269, -24.97949919687829 ], [ 31.484527549306545, -24.979450489905542 ], [ 31.484484388015563, -24.979348869031735 ] ] ] } },
{ "type": "Feature", "properties": { "OBJECTID": 0, "ACCESS": "Staff", "CODE": null, "NAME": "Kruger Gate living quarters", "BOUNDARY": "Section & Western Boundary", "CLASS_DEFI": "Management Road", "SURFACE": "Graded", "LENGTH_KM": 0.26902527769000001, "CLASS": "Management Road", "Alias": null, "Category": "Management", "Type": "D1", "Speed": 40 }, "geometry": { "type": "MultiLineString", "coordinates": [ [ [ 31.486023595849268, -24.981797498947699 ], [ 31.485949851880783, -24.981555295595278 ], [ 31.485841033053717, -24.981345155549359 ], [ 31.485751284437196, -24.98118298841964 ], [ 31.485739351391544, -24.981087309121364 ], [ 31.485727491503457, -24.980985658199003 ], [ 31.485702089460318, -24.980919703675639 ], [ 31.485644148629678, -24.980835500929004 ], [ 31.485612780196007, -24.980721706740169 ], [ 31.485588402343836, -24.980572149482356 ], [ 31.485537232825806, -24.980470098505922 ], [ 31.48547943861092, -24.980373952460212 ], [ 31.485401331214511, -24.980331350957702 ], [ 31.485283548343645, -24.980318207419472 ], [ 31.485158921209123, -24.980328883585358 ], [ 31.484909300989766, -24.98038009370601 ], [ 31.484771716905872, -24.980378692896572 ], [ 31.484634571995951, -24.980341462238361 ], [ 31.484563602130464, -24.980251154062909 ] ] ] } }
]
}
